55173,ONEWEB-0710,2023,109.29,-1.0,+,87.92,Active,0,LEO,USA,UK,Unknown,Unknown,Unknown,1 55173U 23004AK  24105.51872690  .00000086  00000+0  18728-3 0  9992,2 55173  87.9216 163.8283 0002301 100.7393 259.3998 13.17650273 63061,13.17650273,0.0002301,LEO
55174,ONEWEB-0711,2023,109.8,-1.0,+,87.9,Active,0,LEO,USA,UK,Unknown,Unknown,Unknown,1 55174U 23004AL  24104.69725166 -.00000601  00000+0 -17311-2 0  9997,2 55174  87.9026 179.0897 0002746  85.8881 274.2561 13.11417917 61700,13.11417917,0.0002746,LEO
55175,ONEWEB-0713,2023,109.8,-1.0,+,87.9,Active,0,LEO,USA,UK,Unknown,Unknown,Unknown,1 55175U 23004AM  24105.24919295  .00000009  00000+0 -94576-5 0  9990,2 55175  87.9024 178.9882 0002265  91.0613 269.0774 13.11420390 61762,13.1142039,0.0002265,LEO
55176,ONEWEB-0715,2023,109.8,-1.0,+,87.9,Active,0,LEO,USA,UK,Unknown,Unknown,Unknown,1 55176U 23004AN  24104.71023697 -.00000159  00000+0 -48569-3 0  9990,2 55176  87.9026 179.0948 0002050  93.2272 266.9090 13.11418067 61739,13.11418067,0.000205,LEO
55177,ONEWEB-0716,2023,109.29,-1.0,+,87.92,Active,0,LEO,USA,UK,Unknown,Unknown,Unknown,1 55177U 23004AP  24104.67710844  .00000057  00000+0  11303-3 0  9994,2 55177  87.9218 163.9849 0001816  95.8180 264.3159 13.17647476 62957,13.17647476,0.0001816,LEO
55178,ONEWEB-0717,2023,109.29,-1.0,+,87.92,Active,0,LEO,USA,UK,Unknown,Unknown,Unknown,1 55178U 23004AQ  24105.19125811  .00000049  00000+0  92626-4 0  9996,2 55178  87.9218 163.8488 0003083  92.3610 267.7874 13.17650521 63074,13.17650521,0.0003083,LEO
55179,ONEWEB-0719,2023,109.29,-1.0,+,87.92,Active,0,LEO,USA,UK,Unknown,Unknown,Unknown,1 55179U 23004AR  24104.67078016  .00000041  00000+0  73253-4 0  9990,2 55179  87.9217 163.9380 0001945  89.8488 270.2866 13.17647634 62952,13.17647634,0.0001945,LEO
55796,ONEWEB-0530,2023,109.03,-1.0,+,87.92,Active,0,LEO,USA,UK,Unknown,Unknown,Unknown,1 55796U 23029A   24105.46233138  .00000073  00000+0  14648-3 0  9995,2 55796  87.9172  72.4091 0002474  75.8143 284.3265 13.20770753 57081,13.20770753,0.0002474,LEO
